CALSPHERE 1             
1 00900U 64063C   26177.97017495  .00000536  00000+0  53696-3 0  9998
2 00900  90.2228  72.0011 0023238 264.9038 113.4186 13.76633355 72774
CALSPHERE 2             
1 00902U 64063E   26177.71951487  .00000054  00000+0  67478-4 0  9999
2 00902  90.2368  76.0242 0017911 193.7995 225.7486 13.52900867857559
LCS 1                   
1 01361U 65034C   26177.96658646  .00000013  00000+0  62019-3 0  9996
2 01361  32.1361 153.8014 0012302 157.8030 202.3001  9.89310857210857
TEMPSAT 1               
1 01512U 65065E   26177.83965946  .00000043  00000+0  69078-4 0  9994
2 01512  89.9982 212.5948 0068374 220.2984 314.9586 13.33594521961336
CALSPHERE 4A            
1 01520U 65065H   26177.88413134  .00000094  00000+0  16183-3 0  9999
2 01520  89.8988 122.3923 0072157  76.3580 345.9741 13.36280121964002
OPS 5712 (P/L 160)      
1 02826U 67053A   26177.93099189  .00007825  00000+0  10964-2 0  9993
2 02826  69.9174  14.4116 0000991 298.0061  62.0987 14.77840130 67671
LES-5                   
1 02866U 67066E   26177.94438318 -.00000053  00000+0  00000+0 0  9997
2 02866   2.6457  96.0605 0051806 214.1796 272.2684  1.09425326131147
SURCAL 159              
1 02872U 67053F   26177.87772612  .00000070  00000+0  84859-4 0  9997
2 02872  69.9749 339.9603 0004450 110.0386 250.1201 13.99605000 11567
OPS 5712 (P/L 153)      
1 02874U 67053H   26177.93380262 -.00000001  00000+0  37428-4 0  9997
2 02874  69.9741  94.4162 0007974 202.7824 157.2929 13.96829674  8151
RIGIDSPHERE 2 (LCS 4)   
1 05398U 71067E   26177.93475627  .00000724  00000+0  22954-3 0  9999
2 05398  87.6219 336.1011 0059174 198.4124 161.4935 14.37878708875282
OSCAR 7 (AO-7)          
1 07530U 74089B   26177.95096363 -.00000030  00000+0  10246-3 0  9996
2 07530 101.9899 191.2993 0012643 112.0577 277.1703 12.53698219361741
STARLETTE               
1 07646U 75010A   26177.92331712 -.00000147  00000+0 -14444-5 0  9992
2 07646  49.8241  66.1634 0205602  95.2266 267.2123 13.82350471595886
LAGEOS 1                
1 08820U 76039A   26177.69726071  .00000014  00000+0  00000+0 0  9997
2 08820 109.8030 182.5897 0044670 300.2288 221.4816  6.38664729913744
PHASE 3B (AO-10)        
1 14129U 83058B   26174.68191131 -.00000085  00000+0  00000+0 0  9993
2 14129  25.9176 218.4895 6008564 117.4551 314.9460  2.05872578295624
UOSAT 2 (UO-11)         
1 14781U 84021B   26177.88662513  .00001206  00000+0  12818-3 0  9999
2 14781  97.8061 143.3531 0008474 142.5122 217.6689 14.90806409258571
AJISAI (EGS)            
1 16908U 86061A   26177.92725718 -.00000112  00000+0 -10394-3 0  9994
2 16908  50.0083 117.4441 0011162 205.2906 198.8276 12.44516763481608
TDRS 3                  
1 19548U 88091B   26177.79854181 -.00000295  00000+0  00000+0 0  9994
2 19548  12.5942 340.9396 0037676 356.8926 175.7234  1.00270713125484
COSMOS 1989 (ETALON 1)  
1 19751U 89001C   26177.37055953 -.00000061  00000+0  00000+0 0  9997
2 19751  64.9505  71.8814 0023338 217.5565 314.3283  2.13156108291567
COSMOS 2024 (ETALON 2)  
1 20026U 89039C   26177.37708838 -.00000084  00000+0  00000+0 0  9997
2 20026  64.9286 310.2191 0020709 212.4304 123.6823  2.13204697288690
FLTSATCOM 8 (USA 46)    
1 20253U 89077A   26177.90430618 -.00000364  00000+0  00000+0 0  9999
2 20253  12.4187 351.1047 0003919  59.9087 315.3372  1.00272471260666
LUSAT (LO-19)           
1 20442U 90005G   26177.87980858  .00000117  00000+0  58509-4 0  9991
2 20442  98.8847 199.9524 0011684 172.3680 187.7684 14.34125883903781
HST                     
1 20580U 90037B   26177.92228016  .00007114  00000+0  22414-3 0  9995
2 20580  28.4734  14.0366 0001405 260.4690  99.5747 15.30856861790068
SKYNET 4C               
1 20776U 90079A   26162.20198486  .00000132  00000+0  00000+0 0  9996
2 20776  13.3424 349.8525 0002400  96.2313 279.5534  1.00274127130831
TDRS 5                  
1 21639U 91054B   26177.70373550  .00000085  00000+0  00000+0 0  9994
2 21639  14.0697 353.7092 0006275 264.1146 102.7887  1.00267874127810
LAGEOS 2                
1 22195U 92070B   26155.50225823 -.00000009  00000+0  00000+0 0  9991
2 22195  52.6594 274.6781 0137809 181.7683 222.9403  6.47293609794603
TDRS 6                  
1 22314U 93003B   26177.95786844 -.00000295  00000+0  00000+0 0  9996
2 22314  14.1829 356.9857 0008573 179.8519  37.1554  1.00267790122502
SCD 1                   
1 22490U 93009B   26177.96048166  .00000385  00000+0  54031-4 0  9993
2 22490  24.9681 147.2297 0041663 241.2490 160.8127 14.46122069762536
UFO 2 (USA 95)          
1 22787U 93056A   26177.67132910  .00000126  00000+0  00000+0 0  9998
2 22787  11.8978   3.5020 0004538   8.7103 172.8825  1.00273180118646
STELLA                  
1 22824U 93061B   26177.95714381 -.00000035  00000+0  40558-5 0  9993
2 22824  98.7722 242.2445 0005942 199.2261 335.9090 14.27470675706160
EYESAT A (AO-27)        
1 22825U 93061C   26177.92905401  .00000087  00000+0  49902-4 0  9993
2 22825  98.6877 245.3390 0009485  74.6935 285.5295 14.30944638708397
ITAMSAT (IO-26)         
1 22826U 93061D   26177.90555967  .00000084  00000+0  48439-4 0  9991
2 22826  98.6824 245.2339 0009870  59.7105 300.5053 14.31371793708705
